IRIDIUM 119             
1 42959U 17061E   25282.09956924  .00000051  00000+0  11324-4 0  9997
2 42959  86.3958 130.2421 0002373  89.0403 271.1065 14.34218576418828
IRIDIUM 107             
1 42960U 17061F   25282.11859707  .00000132  00000+0  39893-4 0  9994
2 42960  86.3957 130.2538 0002519  81.2233 278.9248 14.34218278418833
IRIDIUM 132             
1 42961U 17061G   25282.12493852  .00000250  00000+0  82334-4 0  9990
2 42961  86.3954 130.2323 0002188  84.0297 276.1148 14.34218992418838
IRIDIUM 136             
1 42962U 17061H   25282.08688360  .00000319  00000+0  10667-3 0  9991
2 42962  86.3957 130.2537 0002301  87.0786 273.0673 14.34218119418843
IRIDIUM 139             
1 42963U 17061J   25282.09322882  .00000320  00000+0  10713-3 0  9991
2 42963  86.3958 130.3089 0002255  80.8960 279.2490 14.34218424418856
IRIDIUM 125             
1 42964U 17061K   25282.08054023  .00000292  00000+0  97267-4 0  9998
2 42964  86.3962 130.3705 0002712  85.8295 274.3211 14.34217778418860
IRIDIUM 135             
1 43070U 17083A   25282.12443382  .00000286  00000+0  94909-4 0  9999
2 43070  86.3936  66.9535 0001893  92.5409 267.6003 14.34217471408162
IRIDIUM 138             
1 43071U 17083B   25281.87069998  .00000382  00000+0  12928-3 0  9995
2 43071  86.3927  66.7160 0002447 100.9899 259.1572 14.34226199408117
